NORAD_CAT_ID,OBJECT_NAME,OBJECT_TYPE,EPOCH,MEAN_MOTION,ECCENTRICITY,INCLINATION,RA_OF_ASC_NODE,ARG_OF_PERICENTER,MEAN_ANOMALY,BSTAR,MEAN_MOTION_DOT,MEAN_MOTION_DDOT,TLE_LINE0,TLE_LINE1,TLE_LINE2,SEMIMAJOR_AXIS,PERIOD,APOGEE,PERIGEE,DECAYED
53915.0,STARLINK-5017,PAYLOAD,2023-03-14 12:26:42,15.08841074,0.0001482,53.2173,172.6795,74.2581,285.8575,8.0562e-05,9.94e-06,0.0,0 STARLINK-5017,1 53915U 22119AF  23073.51854597  .00000994  00000-0  80562-4 0  9994,2 53915  53.2173 172.6795 0001482  74.2581 285.8575 15.08841074 26674,6917.877,95.437,540.767,538.717,0.0
53915.0,STARLINK-5017,PAYLOAD,2023-03-15 12:17:27,15.08880075,0.0001335,53.2166,168.2185,92.4489,267.6656,0.00072946,0.00011353,0.0,0 STARLINK-5017,1 53915U 22119AF  23074.51212428  .00011353  00000-0  72946-3 0  9993,2 53915  53.2166 168.2185 0001335  92.4489 267.6656 15.08880075 26825,6917.758,95.435,540.546,538.699,0.0
53915.0,STARLINK-5017,PAYLOAD,2023-03-15 23:25:09,15.08864738,0.0001332,53.2172,166.1364,101.3292,258.785,0.00028766,4.296e-05,0.0,0 STARLINK-5017,1 53915U 22119AF  23074.97580282  .00004296  00000-0  28766-3 0  9998,2 53915  53.2172 166.1364 0001332 101.3292 258.7850 15.08864738 26899,6917.805,95.436,540.591,538.748,0.0
53915.0,STARLINK-5017,PAYLOAD,2023-03-16 10:32:51,15.08838641,0.0001401,53.2155,164.0586,91.3433,268.772,-0.0003515,-5.877e-05,0.0,0 STARLINK-5017,1 53915U 22119AF  23075.43948895 -.00005877  00000-0 -35150-3 0  9991,2 53915  53.2155 164.0586 0001401  91.3433 268.7720 15.08838641 26964,6917.885,95.438,540.719,538.78,0.0
53915.0,STARLINK-5017,PAYLOAD,2023-03-16 15:19:01,15.08840208,0.0001687,53.2151,163.1648,107.1492,252.9685,-0.00027519,-4.665e-05,0.0,0 STARLINK-5017,1 53915U 22119AF  23075.63820749 -.00004665  00000-0 -27519-3 0  9994,2 53915  53.2151 163.1648 0001687 107.1492 252.9685 15.08840208 27414,6917.88,95.438,540.912,538.578,0.0
53915.0,STARLINK-5017,PAYLOAD,2023-03-17 10:23:40,15.08814614,0.0001341,53.2175,159.5989,91.3632,268.7514,-0.00041898,-6.945e-05,0.0,0 STARLINK-5017,1 53915U 22119AF  23076.43311036 -.00006945  00000-0 -41898-3 0  9996,2 53915  53.2175 159.5989 0001341  91.3632 268.7514 15.08814614 27119,6917.958,95.439,540.751,538.895,0.0
53915.0,STARLINK-5017,PAYLOAD,2023-03-17 11:59:03,15.08810769,0.0001122,53.217,159.3009,91.3371,268.775,-0.0002865,-4.841e-05,0.0,0 STARLINK-5017,1 53915U 22119AF  23076.49935135 -.00004841  00000-0 -28650-3 0  9998,2 53915  53.2170 159.3009 0001122  91.3371 268.7750 15.08810769 27548,6917.97,95.439,540.611,539.059,0.0
53915.0,STARLINK-5017,PAYLOAD,2023-03-18 11:49:51,15.08871996,9.55e-05,53.2169,154.8398,82.0289,278.0812,0.001846,0.00029239,0.0,0 STARLINK-5017,1 53915U 22119AF  23077.49295270  .00029239  00000-0  18460-2 0  9991,2 53915  53.2169 154.8398 0000955  82.0289 278.0812 15.08871996 27277,6917.783,95.436,540.308,538.987,0.0
53915.0,STARLINK-5017,PAYLOAD,2023-03-18 15:00:37,15.08880751,9.72e-05,53.2173,154.2452,81.1394,278.9708,0.0018162,0.00028767,0.0,0 STARLINK-5017,1 53915U 22119AF  23077.62542923  .00028767  00000-0  18162-2 0  9990,2 53915  53.2173 154.2452 0000972  81.1394 278.9708 15.08880751 27714,6917.756,95.435,540.293,538.948,0.0
53915.0,STARLINK-5017,PAYLOAD,2023-03-19 03:43:42,15.08869371,0.0002131,53.217,151.8657,89.3569,270.7668,0.0011158,0.00017529,0.0,0 STARLINK-5017,1 53915U 22119AF  23078.15534842  .00017529  00000-0  11158-2 0  9992,2 53915  53.2170 151.8657 0002131  89.3569 270.7668 15.08869371 27376,6917.791,95.436,541.13,538.181,0.0
53915.0,STARLINK-5017,PAYLOAD,2023-03-19 11:40:37,15.08873164,0.0001118,53.2165,150.3782,93.0526,267.0595,0.0015905,0.00025138,0.0,0 STARLINK-5017,1 53915U 22119AF  23078.48654296  .00025138  00000-0  15905-2 0  9993,2 53915  53.2165 150.3782 0001118  93.0526 267.0595 15.08873164 27847,6917.779,95.435,540.417,538.871,0.0
53915.0,STARLINK-5017,PAYLOAD,2023-03-19 21:12:56,15.08857479,0.0001299,53.2173,148.5958,84.7017,275.4123,0.0018579,0.00029418,0.0,0 STARLINK-5017,1 53915U 22119AF  23078.88398189  .00029418  00000-0  18579-2 0  9998,2 53915  53.2173 148.5958 0001299  84.7017 275.4123 15.08857479 27900,6917.827,95.436,540.591,538.793,0.0
53915.0,STARLINK-5017,PAYLOAD,2023-03-20 05:09:51,15.08838084,0.0001316,53.2177,147.1089,84.6565,275.4578,0.00024788,3.659e-05,0.0,0 STARLINK-5017,1 53915U 22119AF  23079.21518402  .00003659  00000-0  24788-3 0  9997,2 53915  53.2177 147.1089 0001316  84.6565 275.4578 15.08838084 27535,6917.886,95.438,540.662,538.841,0.0
53915.0,STARLINK-5017,PAYLOAD,2023-03-20 09:56:01,15.08838299,0.0001389,53.2173,146.2171,84.225,275.8901,0.0012344,0.00019411,0.0,0 STARLINK-5017,1 53915U 22119AF  23079.41390675  .00019411  00000-0  12344-2 0  9996,2 53915  53.2173 146.2171 0001389  84.2250 275.8901 15.08838299 27981,6917.886,95.438,540.711,538.79,0.0
53915.0,STARLINK-5017,PAYLOAD,2023-03-21 11:22:11,15.08847147,0.0001504,53.2171,141.4594,81.3104,278.8058,0.00055112,8.496e-05,0.0,0 STARLINK-5017,1 53915U 22119AF  23080.47374818  .00008496  00000-0  55112-3 0  9997,2 53915  53.2171 141.4594 0001504  81.3104 278.8058 15.08847147 27720,6917.859,95.437,540.764,538.683,0.0
53915.0,STARLINK-5017,PAYLOAD,2023-03-21 20:54:30,15.08841943,0.0001601,53.2169,139.6752,78.2297,281.8875,0.00022686,3.324e-05,0.0,0 STARLINK-5017,1 53915U 22119AF  23080.87118941  .00003324  00000-0  22686-3 0  9999,2 53915  53.2169 139.6752 0001601  78.2297 281.8875 15.08841943 27783,6917.874,95.437,540.847,538.632,0.0
53915.0,STARLINK-5017,PAYLOAD,2023-03-22 20:45:17,15.08845259,0.0001701,53.2184,135.2157,80.2318,279.8866,0.00020786,3.022e-05,0.0,0 STARLINK-5017,1 53915U 22119AF  23081.86478940  .00003022  00000-0  20786-3 0  9991,2 53915  53.2184 135.2157 0001701  80.2318 279.8866 15.08845259 28354,6917.864,95.437,540.906,538.553,0.0
53915.0,STARLINK-5017,PAYLOAD,2023-03-23 09:28:22,15.08848358,0.0001671,53.2176,132.8363,80.0097,280.1084,0.00021114,3.075e-05,0.0,0 STARLINK-5017,1 53915U 22119AF  23082.39470754  .00003075  00000-0  21114-3 0  9999,2 53915  53.2176 132.8363 0001671  80.0097 280.1084 15.08848358 28018,6917.855,95.437,540.876,538.564,0.0
53915.0,STARLINK-5017,PAYLOAD,2023-03-23 20:36:04,15.08855774,0.0001576,53.2174,130.7545,81.1125,279.0046,0.00036845,5.583e-05,0.0,0 STARLINK-5017,1 53915U 22119AF  23082.85838360  .00005583  00000-0  36845-3 0  9994,2 53915  53.2174 130.7545 0001576  81.1125 279.0046 15.08855774 28502,6917.832,95.437,540.787,538.607,0.0
53915.0,STARLINK-5017,PAYLOAD,2023-03-24 09:19:08,15.08881481,0.0001717,53.216,128.3781,78.8881,281.2304,0.00095583,0.00014974,0.0,0 STARLINK-5017,1 53915U 22119AF  23083.38829452  .00014974  00000-0  95583-3 0  9993,2 53915  53.2160 128.3781 0001717  78.8881 281.2304 15.08881481 28169,6917.754,95.435,540.806,538.431,0.0
53915.0,STARLINK-5017,PAYLOAD,2023-03-24 20:26:51,15.08844959,0.0002227,53.216,126.2964,57.6444,302.4764,2.3109e-05,8e-07,0.0,0 STARLINK-5017,1 53915U 22119AF  23083.85198199  .00000080  00000-0  23109-4 0  9991,2 53915  53.2160 126.2964 0002227  57.6444 302.4764 15.08844959 28239,6917.865,95.437,541.271,538.19,0.0
53915.0,STARLINK-5017,PAYLOAD,2023-03-25 02:48:24,15.08808161,0.0001481,53.2155,125.1068,62.7397,297.3746,-0.00076718,-0.00012466,0.0,0 STARLINK-5017,1 53915U 22119AF  23084.11695281 -.00012466  00000-0 -76718-3 0  9991,2 53915  53.2155 125.1068 0001481  62.7397 297.3746 15.08808161 28272,6917.978,95.44,540.867,538.818,0.0
53915.0,STARLINK-5017,PAYLOAD,2023-03-25 09:09:57,15.08806625,0.0001296,53.2157,123.9158,67.5798,292.5332,-0.00060557,-9.904e-05,0.0,0 STARLINK-5017,1 53915U 22119AF  23084.38191816 -.00009904  00000-0 -60557-3 0  9992,2 53915  53.2157 123.9158 0001296  67.5798 292.5332 15.08806625 28734,6917.982,95.44,540.744,538.951,0.0
53915.0,STARLINK-5017,PAYLOAD,2023-03-26 02:39:13,15.088153,0.0001065,53.2174,120.6413,96.1851,263.9263,0.00044376,6.777e-05,0.0,0 STARLINK-5017,1 53915U 22119AF  23085.11057009  .00006777  00000-0  44376-3 0  9993,2 53915  53.2174 120.6413 0001065  96.1851 263.9263 15.08815300 28424,6917.956,95.439,540.558,539.084,0.0
53915.0,STARLINK-5017,PAYLOAD,2023-03-26 09:00:46,15.08837597,0.0001083,53.2164,119.4528,74.2212,285.89,0.0014712,0.00023202,0.0,0 STARLINK-5017,1 53915U 22119AF  23085.37553362  .00023202  00000-0  14712-2 0  9996,2 53915  53.2164 119.4528 0001083  74.2212 285.8900 15.08837597 28461,6917.888,95.438,540.502,539.004,0.0
53915.0,STARLINK-5017,PAYLOAD,2023-03-26 15:22:18,15.08850042,0.0001107,53.2163,118.2638,68.4308,291.6802,0.0014852,0.00023434,0.0,0 STARLINK-5017,1 53915U 22119AF  23085.64049318  .00023434  00000-0  14852-2 0  9999,2 53915  53.2163 118.2638 0001107  68.4308 291.6802 15.08850042 28924,6917.85,95.437,540.481,538.949,0.0
53915.0,STARLINK-5017,PAYLOAD,2023-03-27 08:51:31,15.08881333,0.0001106,53.2169,114.993,74.6191,285.4923,0.0014006,0.00022098,0.0,0 STARLINK-5017,1 53915U 22119AF  23086.36911970  .00022098  00000-0  14006-2 0  9997,2 53915  53.2169 114.9930 0001106  74.6191 285.4923 15.08881333 29031,6917.754,95.435,540.384,538.854,0.0
53915.0,STARLINK-5017,PAYLOAD,2023-03-27 18:23:50,15.08870785,0.0001229,53.2175,113.2093,85.6755,274.4378,0.0008907,0.00013928,0.0,0 STARLINK-5017,1 53915U 22119AF  23086.76655583  .00013928  00000-0  89070-3 0  9992,2 53915  53.2175 113.2093 0001229  85.6755 274.4378 15.08870785 28674,6917.786,95.436,540.501,538.801,0.0
53915.0,STARLINK-5017,PAYLOAD,2023-03-28 02:20:45,15.08865386,0.0001718,53.2188,111.7275,99.1821,260.9366,5.7073e-05,6.21e-06,0.0,0 STARLINK-5017,1 53915U 22119AF  23087.09775329  .00000621  00000-0  57073-4 0  9995,2 53915  53.2188 111.7275 0001718  99.1821 260.9366 15.08865386 28724,6917.803,95.436,540.856,538.479,0.0
53915.0,STARLINK-5017,PAYLOAD,2023-03-28 10:17:41,15.08851476,0.0001565,53.2189,110.2394,101.4937,258.6231,7.5889e-05,9.2e-06,0.0,0 STARLINK-5017,1 53915U 22119AF  23087.42895266  .00000920  00000-0  75889-4 0  9992,2 53915  53.2189 110.2394 0001565 101.4937 258.6231 15.08851476 28771,6917.845,95.437,540.793,538.628,0.0
